STARLINK-6134           
1 57110U 23090K   25179.50076150  .00000866  00000+0  79167-4 0  9999
2 57110  43.0026 216.1115 0001454 274.1867  85.8809 15.02536283112172
STARLINK-6140           
1 57111U 23090L   25179.80984194 -.00000377  00000+0 -12823-4 0  9994
2 57111  43.0030 214.1288 0001496 274.8908  85.1763 15.02535702112229
STARLINK-6141           
1 57112U 23090M   25179.82649247  .00000470  00000+0  49903-4 0  9995
2 57112  43.0027 214.2543 0001472 274.2115  85.8559 15.02534043112226
STARLINK-6142           
1 57113U 23090N   25179.81539147 -.00000229  00000+0 -18878-5 0  9994
2 57113  43.0030 214.1726 0001373 273.4957  86.5728 15.02535038112229
STARLINK-6125           
1 57114U 23090P   25179.81206431  .00000002  00000+0  15220-4 0  9996
2 57114  43.0028 214.1478 0001450 269.9120  90.1556 15.02527507112221
STARLINK-6085           
1 57115U 23090Q   25180.13172901  .00007929  00000+0  59191-3 0  9997
2 57115  43.0006 212.2465 0001764 310.9928  49.0762 15.03136821111131
STARLINK-6129           
1 57116U 23090R   25179.08746907 -.00000319  00000+0 -85485-5 0  9998
2 57116  43.0016 218.1716 0001258 276.4122  83.6577 15.02531892112110
STARLINK-6148           
1 57117U 23090S   25179.80318061 -.00000266  00000+0 -46062-5 0  9994
2 57117  43.0025 214.0765 0001435 275.7260  84.3419 15.02533549112217
STARLINK-6151           
1 57118U 23090T   25180.25002315  .00008287  00000+0  40956-3 0  9991
2 57118  42.9979 204.6087 0001117 281.3693  89.8841 15.18129530111234
STARLINK-6150           
1 57119U 23090U   25179.79874919  .00000452  00000+0  48534-4 0  9993
2 57119  43.0029 214.0426 0001230 276.6185  83.4517 15.02544280112220
STARLINK-6147           
1 57120U 23090V   25179.80540543  .00000183  00000+0  28623-4 0  9998
2 57120  43.0025 214.0938 0001279 279.5790  80.4908 15.02545249112220
STARLINK-6152           
1 57121U 23090W   25180.12224988  .00000108  00000+0  23081-4 0  9998
2 57121  43.0031 212.1695 0001329 281.0674  79.0019 15.02536304111130
STARLINK-6149           
1 57122U 23090X   25179.79541321  .00000014  00000+0  16109-4 0  9992
2 57122  43.0030 214.0181 0001464 278.8892  81.1784 15.02534029112223
STARLINK-6154           
1 57123U 23090Y   25180.11892065  .00000234  00000+0  32363-4 0  9999
2 57123  43.0023 212.1457 0001459 277.1017  82.9659 15.02533954111131
STARLINK-6146           
1 57124U 23090Z   25179.79317965  .00001997  00000+0  16280-3 0  9999
2 57124  43.0041 214.0016 0001243 276.9488  83.1212 15.02547600112226
STARLINK-6100           
1 57125U 23090AA  25180.03839177  .00000252  00000+0  33696-4 0  9997
2 57125  43.0026 200.2447 0001406 280.3275  79.7409 15.02537325111264
STARLINK-6167           
1 57126U 23090AB  25180.12447110 -.00000098  00000+0  78165-5 0  9990
2 57126  43.0028 212.1856 0001344 274.7467  85.3222 15.02533599111135
STARLINK-6165           
1 57127U 23090AC  25179.78209221 -.00000104  00000+0  74071-5 0  9990
2 57127  43.0024 213.9157 0001484 276.5909  83.4764 15.02535088112036
STARLINK-6163           
1 57128U 23090AD  25180.12115170  .00000169  00000+0  27613-4 0  9999
2 57128  43.0040 212.1607 0001449 277.6870  82.3808 15.02527665111135
STARLINK-6170           
1 57129U 23090AE  25180.11929498  .00000265  00000+0  34716-4 0  9994
2 57129  43.0024 199.9917 0001527 288.2121  71.8555 15.02533743111279
STARLINK-6172           
1 57130U 23090AF  25179.78321408  .00000267  00000+0  34804-4 0  9994
2 57130  43.0030 213.9247 0001347 280.7082  79.3609 15.02539966112035
STARLINK-6162           
1 57131U 23090AG  25179.78246633  .00000334  00000+0  39795-4 0  9990
2 57131  43.0026 201.7637 0001322 276.8283  83.2409 15.02534338112176
STARLINK-6128           
1 57132U 23090AH  25179.57712237  .00000415  00000+0  45790-4 0  9998
2 57132  43.0029 214.9609 0001466 279.0664  81.0013 15.02532981112003
STARLINK-6143           
1 57133U 23090AJ  25179.76914916  .00000177  00000+0  28162-4 0  9997
2 57133  43.0028 201.6638 0001477 287.4073  72.6607 15.02531902112172
STARLINK-6133           
1 57134U 23090AK  25179.78357663 -.00000308  00000+0 -77309-5 0  9996
2 57134  43.0018 201.7696 0001025 289.6931  70.3800 15.02534831112177
STARLINK-6127           
1 57135U 23090AL  25179.75916124 -.00001561  00000+0 -10050-3 0  9997
2 57135  43.0032 201.5856 0001369 276.8531  83.2156 15.02533807112174
STARLINK-6112           
1 57136U 23090AM  25180.11263522 -.00000015  00000+0  13935-4 0  9995
2 57136  43.0028 199.9423 0001379 278.5345  81.5341 15.02536821111279
STARLINK-5347           
1 57137U 23090AN  25179.76692592  .00000204  00000+0  30148-4 0  9992
2 57137  43.0023 201.6432 0001591 281.0145  79.0519 15.02537732112170
STARLINK-5336           
1 57138U 23090AP  25179.77913831 -.00000202  00000+0  78743-7 0  9991
2 57138  43.0019 201.7388 0001174 272.7720  87.2988 15.02532268112170
STARLINK-5355           
1 57139U 23090AQ  25180.09487627 -.00000557  00000+0 -26186-4 0  9993
2 57139  43.0038 199.8070 0001329 266.4352  93.6339 15.02540452111275
STARLINK-5357           
1 57141U 23090AS  25180.08933105 -.00000363  00000+0 -11817-4 0  9992
2 57141  43.0022 199.7634 0001504 279.7930  80.2742 15.02533545111275
STARLINK-5361           
1 57142U 23090AT  25179.42010951 -.00000658  00000+0 -33604-4 0  9999
2 57142  43.0020 203.3382 0001432 285.2967  74.7717 15.02534996112124
STARLINK-5358           
1 57143U 23090AU  25179.74916613  .00000281  00000+0  35874-4 0  9996
2 57143  43.0028 201.5118 0001717 285.1999  74.8654 15.02538756112174
STARLINK-5150           
1 57144U 23090AV  25179.76027133 -.00000377  00000+0 -12868-4 0  9995
2 57144  43.0026 201.5909 0001468 280.1303  79.9373 15.02532029112179
STARLINK-5768           
1 57145U 23090AW  25179.74028945 -.00000106  00000+0  72038-5 0  9991
2 57145  43.0029 201.4434 0001447 276.5699  83.4978 15.02533398112170
STARLINK-5791           
1 57146U 23090AX  25179.74694740 -.00000269  00000+0 -48472-5 0  9990
2 57146  43.0033 201.4914 0001355 275.1738  84.8949 15.02535344112172
STARLINK-5765           
1 57147U 23090AY  25179.13753692  .00005456  00000+0  41884-3 0  9995
2 57147  42.9994 204.6526 0000589 236.9997 123.0789 15.02514041111135
STARLINK-5788           
1 57148U 23090AZ  25179.46328585  .00000420  00000+0  46134-4 0  9991
2 57148  43.0030 202.8056 0001547 280.9408  79.1260 15.02542322112137
STARLINK-5778           
1 57149U 23090BA  25179.68319838  .00000313  00000+0  38217-4 0  9991
2 57149  43.0033 175.8298 0001367 288.8689  71.2005 15.02537940112653
STARLINK-5780           
1 57150U 23090BB  25179.21179872 -.00000223  00000+0 -14310-5 0  9995
2 57150  43.0026 204.3586 0001325 274.7250  85.3441 15.02533928112288
STARLINK-5776           
1 57151U 23090BC  25179.07773080 -.00000047  00000+0  11600-4 0  9992
2 57151  43.0025 205.0701 0001346 279.2476  80.8214 15.02535414112266
STARLINK-6164           
1 57152U 23090BD  25179.47993068 -.00000218  00000+0 -10601-5 0  9999
2 57152  43.0028 202.9309 0001112 298.1613  61.9117 15.02542442112322
STARLINK-5879           
1 57153U 23090BE  25179.10463254  .00000241  00000+0  32935-4 0  9996
2 57153  43.0032 192.2532 0001362 277.5820  82.4867 15.02531942111912
STARLINK-6106           
1 57154U 23090BF  25179.40457331  .00000610  00000+0  60248-4 0  9997
2 57154  43.0027 203.2239 0001364 274.8275  85.2412 15.02545816112317
STARLINK-6108           
1 57155U 23090BG  25180.12139940  .00000289  00000+0  36492-4 0  9998
2 57155  43.0025 199.1418 0001239 270.3713  89.6988 15.02531331111285
STARLINK-6137           
1 57156U 23090BH  25180.19120683  .00000522  00000+0  53701-4 0  9992
2 57156  43.0016 198.8037 0001449 278.7455  81.3223 15.02531366111297
METEOR-M2 3             
1 57166U 23091A   25180.16602975 -.00000009  00000+0  14943-4 0  9996
2 57166  98.6602 236.3688 0005077 111.4166 248.7555 14.24002417104278
STRATOSAT-TK 1 (RS52S)  
1 57167U 23091B   25180.19128488  .00024740  00000+0  59213-3 0  9997
2 57167  97.5511 244.3365 0007730 226.1437 133.9172 15.41418597111032
2023-091C               
1 57168U 23091C   25180.19600752  .00004086  00000+0  19922-3 0  9991
2 57168  97.5544 236.8274 0011826 259.9427 100.0473 15.18840876110545
2023-091D               
1 57169U 23091D   25180.18558484  .00004231  00000+0  21480-3 0  9999
2 57169  97.5604 236.6953 0010251 249.0821 110.9315 15.17414128110512
2023-091E               
1 57170U 23091E   25180.18575869  .00004294  00000+0  21801-3 0  9993
2 57170  97.5609 236.7477 0009179 238.7672 121.2662 15.17415317110518
2023-091F               
1 57171U 23091F   25180.18533301  .00004229  00000+0  21467-3 0  9995
2 57171  97.5605 236.7157 0010986 261.3415  98.6574 15.17415265110516
UMKA 1 (RS40S)          
1 57172U 23091G   25180.21737140  .00003267  00000+0  17565-3 0  9992
2 57172  97.5565 235.4983 0012711 265.3706  94.6074 15.15528498110455
2023-091H               
1 57173U 23091H   25180.21305186  .00004811  00000+0  22890-3 0  9997
2 57173  97.5558 236.8654 0010365 270.1725  89.8322 15.19612728110542
2023-091J               
1 57174U 23091J   25180.19392256  .00001826  00000+0  11434-3 0  9994
2 57174  97.5574 233.0038 0012587 285.1459  74.8378 15.10588796110288
CUBEBEL 2 (EU11S)       
1 57175U 23091K   25180.19504040  .00005176  00000+0  24597-3 0  9997
2 57175  97.5563 236.7431 0010403 272.8889  87.1155 15.19618452110539
SITRO-AIS 5 (KATYS)     
1 57176U 23091L   25180.17396276  .00005549  00000+0  26007-3 0  9998
2 57176  97.5567 237.1581 0012415 259.4817 100.5019 15.20044526110550
ZORKIY-2M 1             
1 57177U 23091M   25180.22340970  .00003306  00000+0  17931-3 0  9990
2 57177  97.5603 235.6951 0013481 261.2665  98.7040 15.15205878110456
CUBESX-HSE 3 (RS42S)    
1 57178U 23091N   25180.19402461  .00005535  00000+0  25213-3 0  9999
2 57178  97.5595 238.0067 0011986 250.8919 109.1019 15.21034788110591
